STARLINK-5658           
1 55338U 23013H   26068.07332791 -.00000120  00000+0  61752-5 0  9996
2 55338  43.0037 303.9474 0001502 260.8013  99.2659 15.02534463171610
STARLING 4              
1 57386U 23100A   26066.02836485 -.00000009  00000+0  55676-5 0  9994
2 57386  99.5115  59.9711 0007803  83.0949 277.1159 15.06148396144525
